NORAD_CAT_ID,OBJECT_NAME,OBJECT_TYPE,EPOCH,MEAN_MOTION,ECCENTRICITY,INCLINATION,RA_OF_ASC_NODE,ARG_OF_PERICENTER,MEAN_ANOMALY,BSTAR,MEAN_MOTION_DOT,MEAN_MOTION_DDOT,TLE_LINE0,TLE_LINE1,TLE_LINE2,SEMIMAJOR_AXIS,PERIOD,APOGEE,PERIGEE,DECAYED
52309.0,STARLINK-3756,PAYLOAD,2023-08-17 18:58:05,15.08860694,0.0001185,53.2173,326.0454,97.4599,262.6527,0.00086757,0.00013554,0.0,0 STARLINK-3756,1 52309U 22041BA  23229.79034711  .00013554  00000-0  86757-3 0  9992,2 52309  53.2173 326.0454 0001185  97.4599 262.6527 15.08860694 74721,6917.817,95.436,540.502,538.862,0.0
52309.0,STARLINK-3756,PAYLOAD,2023-08-18 10:51:58,15.08839211,0.0001,53.2159,323.0742,88.0027,272.1079,0.00049914,7.665e-05,0.0,0 STARLINK-3756,1 52309U 22041BA  23230.45275533  .00007665  00000-0  49914-3 0  9996,2 52309  53.2159 323.0742 0001000  88.0027 272.1079 15.08839211 74820,6917.883,95.438,540.44,539.056,0.0
52309.0,STARLINK-3756,PAYLOAD,2023-08-18 15:38:07,15.08843294,0.0001029,53.2167,322.1832,62.1085,298.0011,0.0017919,0.00028348,0.0,0 STARLINK-3756,1 52309U 22041BA  23230.65147772  .00028348  00000-0  17919-2 0  9991,2 52309  53.2167 322.1832 0001029  62.1085 298.0011 15.08843294 74859,6917.87,95.437,540.447,539.023,0.0
52309.0,STARLINK-3756,PAYLOAD,2023-08-19 12:18:08,15.08847141,0.0001314,53.2162,318.3173,74.5297,285.584,0.00063305,9.803e-05,0.0,0 STARLINK-3756,1 52309U 22041BA  23231.51259871  .00009803  00000-0  63305-3 0  9997,2 52309  53.2162 318.3173 0001314  74.5297 285.5840 15.08847141 74988,6917.859,95.437,540.633,538.815,0.0
52309.0,STARLINK-3756,PAYLOAD,2023-08-20 12:08:55,15.08842607,0.0001251,53.2179,313.8576,88.0395,272.0741,0.00021256,3.097e-05,0.0,0 STARLINK-3756,1 52309U 22041BA  23232.50619918  .00003097  00000-0  21256-3 0  9997,2 52309  53.2179 313.8576 0001251  88.0395 272.0741 15.08842607 75133,6917.872,95.437,540.603,538.872,0.0
52309.0,STARLINK-3756,PAYLOAD,2023-08-21 10:24:19,15.088413,0.0001266,53.2181,309.6944,88.2906,271.8231,0.00013288,1.828e-05,0.0,0 STARLINK-3756,1 52309U 22041BA  23233.43355999  .00001828  00000-0  13288-3 0  9992,2 52309  53.2181 309.6944 0001266  88.2906 271.8231 15.08841300 75279,6917.876,95.437,540.617,538.866,0.0
52309.0,STARLINK-3756,PAYLOAD,2023-08-22 11:50:28,15.08865836,0.0001075,53.2177,304.9368,91.6176,268.494,-0.00062871,-0.00010287,0.0,0 STARLINK-3756,1 52309U 22041BA  23234.49338533 -.00010287  00000-0 -62871-3 0  9997,2 52309  53.2177 304.9368 0001075  91.6176 268.4940 15.08865836 75434,6917.801,95.436,540.41,538.923,0.0
52309.0,STARLINK-3756,PAYLOAD,2023-08-22 13:25:52,15.0884127,0.0001183,53.217,304.639,85.0086,275.1041,0.00016472,2.335e-05,0.0,0 STARLINK-3756,1 52309U 22041BA  23234.55964027  .00002335  00000-0  16472-3 0  9996,2 52309  53.2170 304.6390 0001183  85.0086 275.1041 15.08841270 75440,6917.877,95.437,540.56,538.923,0.0
52309.0,STARLINK-3756,PAYLOAD,2023-08-24 13:07:27,15.08837358,0.0001261,53.2173,295.7177,80.8281,279.2854,5.5993e-05,6.03e-06,0.0,0 STARLINK-3756,1 52309U 22041BA  23236.54684592  .00000603  00000-0  55993-4 0  9991,2 52309  53.2173 295.7177 0001261  80.8281 279.2854 15.08837358 75745,6917.888,95.438,540.626,538.881,0.0
52309.0,STARLINK-3756,PAYLOAD,2023-08-25 09:47:27,15.0884355,0.0001209,53.2167,291.8514,73.2095,286.9029,5.0513e-05,5.16e-06,0.0,0 STARLINK-3756,1 52309U 22041BA  23237.40796286  .00000516  00000-0  50513-4 0  9997,2 52309  53.2167 291.8514 0001209  73.2095 286.9029 15.08843550 75875,6917.87,95.437,540.571,538.898,0.0
52309.0,STARLINK-3756,PAYLOAD,2023-08-25 12:58:13,15.08847919,0.0001284,53.2171,291.2571,76.5945,283.519,8.3969e-05,1.049e-05,0.0,0 STARLINK-3756,1 52309U 22041BA  23237.54043902  .00001049  00000-0  83969-4 0  9995,2 52309  53.2171 291.2571 0001284  76.5945 283.5190 15.08847919 75897,6917.856,95.437,540.609,538.833,0.0
52309.0,STARLINK-3756,PAYLOAD,2023-08-26 09:38:15,15.08837335,0.0001347,53.2169,287.3916,74.1209,285.9932,8.9317e-05,1.134e-05,0.0,0 STARLINK-3756,1 52309U 22041BA  23238.40156711  .00001134  00000-0  89317-4 0  9992,2 52309  53.2169 287.3916 0001347  74.1209 285.9932 15.08837335 76027,6917.889,95.438,540.685,538.822,0.0
52309.0,STARLINK-3756,PAYLOAD,2023-08-27 09:29:01,15.08846567,0.0001341,53.2169,282.9314,75.903,284.2111,6.782e-05,7.92e-06,0.0,0 STARLINK-3756,1 52309U 22041BA  23239.39516165  .00000792  00000-0  67820-4 0  9998,2 52309  53.2169 282.9314 0001341  75.9030 284.2111 15.08846567 76179,6917.86,95.437,540.653,538.798,0.0
52309.0,STARLINK-3756,PAYLOAD,2023-08-27 14:15:10,15.08850432,0.0001313,53.2168,282.0389,78.6967,281.4173,9.6203e-05,1.244e-05,0.0,0 STARLINK-3756,1 52309U 22041BA  23239.59387730  .00001244  00000-0  96203-4 0  9994,2 52309  53.2168 282.0389 0001313  78.6967 281.4173 15.08850432 76206,6917.849,95.437,540.622,538.805,0.0
52309.0,STARLINK-3756,PAYLOAD,2023-08-28 02:58:16,15.08837377,0.0001465,53.2182,279.6615,71.9762,288.1389,5.5149e-05,5.9e-06,0.0,0 STARLINK-3756,1 52309U 22041BA  23240.12380735  .00000590  00000-0  55149-4 0  9990,2 52309  53.2182 279.6615 0001465  71.9762 288.1389 15.08837377 76287,6917.888,95.438,540.767,538.74,0.0
52309.0,STARLINK-3756,PAYLOAD,2023-08-28 14:05:58,15.08844153,0.0001371,53.2175,277.577,92.387,267.7279,7.8764e-05,9.66e-06,0.0,0 STARLINK-3756,1 52309U 22041BA  23240.58748086  .00000966  00000-0  78764-4 0  9992,2 52309  53.2175 277.5770 0001371  92.3870 267.7279 15.08844153 76350,6917.868,95.437,540.681,538.784,0.0
52309.0,STARLINK-3756,PAYLOAD,2023-08-29 09:10:36,15.08841604,0.0001321,53.2172,274.01,96.9906,263.1237,-8.9383e-06,-4.3e-06,0.0,0 STARLINK-3756,1 52309U 22041BA  23241.38236554 -.00000430  00000-0 -89383-5 0  9991,2 52309  53.2172 274.0100 0001321  96.9906 263.1237 15.08841604 76476,6917.875,95.437,540.654,538.827,0.0
52309.0,STARLINK-3756,PAYLOAD,2023-08-29 12:21:22,15.08841797,0.0001305,53.2166,273.4145,92.5401,267.574,5.3033e-06,-2.03e-06,0.0,0 STARLINK-3756,1 52309U 22041BA  23241.51484516 -.00000203  00000-0  53033-5 0  9999,2 52309  53.2166 273.4145 0001305  92.5401 267.5740 15.08841797 76497,6917.875,95.437,540.643,538.837,0.0
52309.0,STARLINK-3756,PAYLOAD,2023-08-30 02:39:51,15.08833194,0.0001381,53.2168,270.7375,92.0862,268.0288,4.0646e-05,3.59e-06,0.0,0 STARLINK-3756,1 52309U 22041BA  23242.11101099  .00000359  00000-0  40646-4 0  9994,2 52309  53.2168 270.7375 0001381  92.0862 268.0288 15.08833194 76589,6917.901,95.438,540.722,538.811,0.0
52309.0,STARLINK-3756,PAYLOAD,2023-08-30 18:33:40,15.08872491,0.0001742,53.2171,267.7658,85.8307,274.2884,0.00031939,4.803e-05,0.0,0 STARLINK-3756,1 52309U 22041BA  23242.77338359  .00004803  00000-0  31939-3 0  9999,2 52309  53.2171 267.7658 0001742  85.8307 274.2884 15.08872491 76683,6917.781,95.435,540.851,538.441,0.0
52309.0,STARLINK-3756,PAYLOAD,2023-08-31 10:27:34,15.08832714,0.0001682,53.2172,264.793,96.0422,264.0762,8.6608e-05,1.09e-05,0.0,0 STARLINK-3756,1 52309U 22041BA  23243.43581536  .00001090  00000-0  86608-4 0  9999,2 52309  53.2172 264.7930 0001682  96.0422 264.0762 15.08832714 76786,6917.903,95.438,540.931,538.604,0.0
52309.0,STARLINK-3756,PAYLOAD,2023-09-01 10:18:22,15.08830359,0.0001834,53.2178,260.3368,97.4802,262.6399,-0.00044504,-7.362e-05,0.0,0 STARLINK-3756,1 52309U 22041BA  23244.42943063 -.00007362  00000-0 -44504-3 0  9994,2 52309  53.2178 260.3368 0001834  97.4802 262.6399 15.08830359 76935,6917.91,95.438,541.044,538.506,0.0
52309.0,STARLINK-3756,PAYLOAD,2023-09-01 18:15:16,15.08841661,0.0001458,53.2168,258.845,88.0035,272.1124,9.0976e-05,1.16e-05,0.0,0 STARLINK-3756,1 52309U 22041BA  23244.76061171  .00001160  00000-0  90976-4 0  9995,2 52309  53.2168 258.8450 0001458  88.0035 272.1124 15.08841661 76989,6917.875,95.437,540.749,538.732,0.0
52309.0,STARLINK-3756,PAYLOAD,2023-09-02 00:36:49,15.08843825,0.0001413,53.2167,257.6549,88.8019,271.3135,9.7316e-05,1.261e-05,0.0,0 STARLINK-3756,1 52309U 22041BA  23245.02556985  .00001261  00000-0  97316-4 0  9994,2 52309  53.2167 257.6549 0001413  88.8019 271.3135 15.08843825 77028,6917.869,95.437,540.711,538.756,0.0
52309.0,STARLINK-3756,PAYLOAD,2023-09-02 18:06:04,15.08836815,0.0002331,53.2135,254.3824,74.5196,285.6054,2.4343e-05,9.9e-07,0.0,0 STARLINK-3756,1 52309U 22041BA  23245.75421887  .00000099  00000-0  24343-4 0  9994,2 52309  53.2135 254.3824 0002331  74.5196 285.6054 15.08836815 77132,6917.89,95.438,541.368,538.143,0.0
52309.0,STARLINK-3756,PAYLOAD,2023-09-03 06:49:08,15.08842156,0.0001197,53.2164,252.0044,85.5739,274.539,2.0436e-05,3.7e-07,0.0,0 STARLINK-3756,1 52309U 22041BA  23246.28413088  .00000037  00000-0  20436-4 0  9998,2 52309  53.2164 252.0044 0001197  85.5739 274.5390 15.08842156 77211,6917.874,95.437,540.567,538.911,0.0
52309.0,STARLINK-3756,PAYLOAD,2023-09-04 00:18:23,15.0883701,0.0001487,53.2153,248.7315,91.196,268.9202,-2.8117e-05,-7.35e-06,0.0,0 STARLINK-3756,1 52309U 22041BA  23247.01277507 -.00000735  00000-0 -28117-4 0  9995,2 52309  53.2153 248.7315 0001487  91.1960 268.9202 15.08837010 77327,6917.89,95.438,540.783,538.726,0.0
52309.0,STARLINK-3756,PAYLOAD,2023-09-04 09:50:42,15.08837953,0.0001524,53.2165,246.9486,90.5105,269.6062,9.8167e-06,-1.32e-06,0.0,0 STARLINK-3756,1 52309U 22041BA  23247.41021451 -.00000132  00000-0  98167-5 0  9997,2 52309  53.2165 246.9486 0001524  90.5105 269.6062 15.08837953 77389,6917.887,95.438,540.806,538.697,0.0
52309.0,STARLINK-3756,PAYLOAD,2023-09-05 11:16:52,15.08840669,0.000152,53.2166,242.1909,91.213,268.9037,6.9666e-05,8.21e-06,0.0,0 STARLINK-3756,1 52309U 22041BA  23248.47005125  .00000821  00000-0  69666-4 0  9999,2 52309  53.2166 242.1909 0001520  91.2130 268.9037 15.08840669 77540,6917.878,95.438,540.795,538.692,0.0
52309.0,STARLINK-3756,PAYLOAD,2023-09-05 23:59:58,15.08832848,0.0001443,53.2167,239.8115,93.9606,266.1551,6.2595e-05,7.08e-06,0.0,0 STARLINK-3756,1 52309U 22041BA  23248.99997733  .00000708  00000-0  62595-4 0  9999,2 52309  53.2167 239.8115 0001443  93.9606 266.1551 15.08832848 77624,6917.902,95.438,540.766,538.769,0.0
